CCSDS_OMM_VERS = 2.0
CREATION_DATE  = 
ORIGINATOR     = 

OBJECT_NAME    = ISS OBJECT YC
OBJECT_ID      = 1998-067YC
CENTER_NAME    = EARTH
REF_FRAME      = TEME
TIME_SYSTEM    = UTC
MEAN_ELEMENT_THEORY = SGP/SGP4

EPOCH          = 2026-02-26T15:25:50.050560
MEAN_MOTION    = 15.51445447
ECCENTRICITY   = .00076137
INCLINATION    = 51.6316
RA_OF_ASC_NODE = 126.6439
ARG_OF_PERICENTER = 114.2311
MEAN_ANOMALY   = 245.9475

EPHEMERIS_TYPE = 0
CLASSIFICATION_TYPE = U
NORAD_CAT_ID   = 67686
ELEMENT_SET_NO = 999
REV_AT_EPOCH   = 307
BSTAR          = .88335406E-3
MEAN_MOTION_DOT = .53017E-3
MEAN_MOTION_DDOT = 0

CCSDS_OMM_VERS = 2.0
CREATION_DATE  = 
ORIGINATOR     = 

OBJECT_NAME    = LEOPARD
OBJECT_ID      = 1998-067YD
CENTER_NAME    = EARTH
REF_FRAME      = TEME
TIME_SYSTEM    = UTC
MEAN_ELEMENT_THEORY = SGP/SGP4

EPOCH          = 2026-02-27T03:53:05.718336
MEAN_MOTION    = 15.51023554
ECCENTRICITY   = .0007673
INCLINATION    = 51.6317
RA_OF_ASC_NODE = 124.1084
ARG_OF_PERICENTER = 119.2183
MEAN_ANOMALY   = 240.9575

EPHEMERIS_TYPE = 0
CLASSIFICATION_TYPE = U
NORAD_CAT_ID   = 67687
ELEMENT_SET_NO = 999
REV_AT_EPOCH   = 307
BSTAR          = .61698E-3
MEAN_MOTION_DOT = .36256E-3
MEAN_MOTION_DDOT = 0

CCSDS_OMM_VERS = 2.0
CREATION_DATE  = 
ORIGINATOR     = 

OBJECT_NAME    = ISS OBJECT YE
OBJECT_ID      = 1998-067YE
CENTER_NAME    = EARTH
REF_FRAME      = TEME
TIME_SYSTEM    = UTC
MEAN_ELEMENT_THEORY = SGP/SGP4

EPOCH          = 2026-02-26T13:54:37.249920
MEAN_MOTION    = 15.51284687
ECCENTRICITY   = .000761
INCLINATION    = 51.6319
RA_OF_ASC_NODE = 126.9710
ARG_OF_PERICENTER = 114.9063
MEAN_ANOMALY   = 245.2718

EPHEMERIS_TYPE = 0
CLASSIFICATION_TYPE = U
NORAD_CAT_ID   = 67688
ELEMENT_SET_NO = 999
REV_AT_EPOCH   = 298
BSTAR          = .82764E-3
MEAN_MOTION_DOT = .49335E-3
MEAN_MOTION_DDOT = 0

CCSDS_OMM_VERS = 2.0
CREATION_DATE  = 
ORIGINATOR     = 

OBJECT_NAME    = PRC TEST SPACECRAFT 4
OBJECT_ID      = 2026-024A
CENTER_NAME    = EARTH
REF_FRAME      = TEME
TIME_SYSTEM    = UTC
MEAN_ELEMENT_THEORY = SGP/SGP4

EPOCH          = 2026-02-27T04:14:40.816320
MEAN_MOTION    = 14.91678801
ECCENTRICITY   = .0006151
INCLINATION    = 49.9852
RA_OF_ASC_NODE = 72.1213
ARG_OF_PERICENTER = 319.5956
MEAN_ANOMALY   = 40.4528

EPHEMERIS_TYPE = 0
CLASSIFICATION_TYPE = U
NORAD_CAT_ID   = 67689
ELEMENT_SET_NO = 999
REV_AT_EPOCH   = 301
BSTAR          = .26148E-4
MEAN_MOTION_DOT = .22E-6
MEAN_MOTION_DDOT = 0

CCSDS_OMM_VERS = 2.0
CREATION_DATE  = 
ORIGINATOR     = 

OBJECT_NAME    = CZ-2F R/B
OBJECT_ID      = 2026-024B
CENTER_NAME    = EARTH
REF_FRAME      = TEME
TIME_SYSTEM    = UTC
MEAN_ELEMENT_THEORY = SGP/SGP4

EPOCH          = 2026-02-27T03:37:25.110048
MEAN_MOTION    = 15.33862395
ECCENTRICITY   = .0175753
INCLINATION    = 49.9879
RA_OF_ASC_NODE = 67.4377
ARG_OF_PERICENTER = 231.2282
MEAN_ANOMALY   = 127.2863

EPHEMERIS_TYPE = 0
CLASSIFICATION_TYPE = U
NORAD_CAT_ID   = 67690
ELEMENT_SET_NO = 999
REV_AT_EPOCH   = 307
BSTAR          = .36063E-3
MEAN_MOTION_DOT = .19524E-3
MEAN_MOTION_DDOT = 0

CCSDS_OMM_VERS = 2.0
CREATION_DATE  = 
ORIGINATOR     = 

OBJECT_NAME    = CZ-2F DEB
OBJECT_ID      = 2026-024C
CENTER_NAME    = EARTH
REF_FRAME      = TEME
TIME_SYSTEM    = UTC
MEAN_ELEMENT_THEORY = SGP/SGP4

EPOCH          = 2026-02-27T04:51:18.547200
MEAN_MOTION    = 15.84950198
ECCENTRICITY   = .0189989
INCLINATION    = 49.9047
RA_OF_ASC_NODE = 61.4756
ARG_OF_PERICENTER = 243.5174
MEAN_ANOMALY   = 114.6209

EPHEMERIS_TYPE = 0
CLASSIFICATION_TYPE = U
NORAD_CAT_ID   = 67691
ELEMENT_SET_NO = 999
REV_AT_EPOCH   = 314
BSTAR          = .8164E-3
MEAN_MOTION_DOT = .930604E-2
MEAN_MOTION_DDOT = .10645E-4

CCSDS_OMM_VERS = 2.0
CREATION_DATE  = 
ORIGINATOR     = 

OBJECT_NAME    = CZ-2F DEB
OBJECT_ID      = 2026-024D
CENTER_NAME    = EARTH
REF_FRAME      = TEME
TIME_SYSTEM    = UTC
MEAN_ELEMENT_THEORY = SGP/SGP4

EPOCH          = 2026-02-27T04:17:29.033664
MEAN_MOTION    = 15.20783613
ECCENTRICITY   = .0246958
INCLINATION    = 50.3168
RA_OF_ASC_NODE = 70.1866
ARG_OF_PERICENTER = 238.7126
MEAN_ANOMALY   = 118.9437

EPHEMERIS_TYPE = 0
CLASSIFICATION_TYPE = U
NORAD_CAT_ID   = 67692
ELEMENT_SET_NO = 999
REV_AT_EPOCH   = 302
BSTAR          = .38424E-2
MEAN_MOTION_DOT = .204953E-2
MEAN_MOTION_DDOT = 0

CCSDS_OMM_VERS = 2.0
CREATION_DATE  = 
ORIGINATOR     = 

OBJECT_NAME    = STARLINK-36748
OBJECT_ID      = 2026-025A
CENTER_NAME    = EARTH
REF_FRAME      = TEME
TIME_SYSTEM    = UTC
MEAN_ELEMENT_THEORY = SGP/SGP4

EPOCH          = 2026-02-27T02:57:41.777280
MEAN_MOTION    = 15.75210964
ECCENTRICITY   = .0001418
INCLINATION    = 97.2844
RA_OF_ASC_NODE = 169.1340
ARG_OF_PERICENTER = 77.1366
MEAN_ANOMALY   = 283.0057

EPHEMERIS_TYPE = 0
CLASSIFICATION_TYPE = U
NORAD_CAT_ID   = 67693
ELEMENT_SET_NO = 999
REV_AT_EPOCH   = 427
BSTAR          = .8299E-3
MEAN_MOTION_DOT = .125606E-2
MEAN_MOTION_DDOT = 0

CCSDS_OMM_VERS = 2.0
CREATION_DATE  = 
ORIGINATOR     = 

OBJECT_NAME    = STARLINK-36753
OBJECT_ID      = 2026-025B
CENTER_NAME    = EARTH
REF_FRAME      = TEME
TIME_SYSTEM    = UTC
MEAN_ELEMENT_THEORY = SGP/SGP4

EPOCH          = 2026-02-27T04:00:01.999584
MEAN_MOTION    = 15.75121191
ECCENTRICITY   = .0001302
INCLINATION    = 97.2847
RA_OF_ASC_NODE = 169.1985
ARG_OF_PERICENTER = 89.7641
MEAN_ANOMALY   = 199.6954

EPHEMERIS_TYPE = 0
CLASSIFICATION_TYPE = U
NORAD_CAT_ID   = 67694
ELEMENT_SET_NO = 999
REV_AT_EPOCH   = 432
BSTAR          = .55226E-3
MEAN_MOTION_DOT = .82799E-3
MEAN_MOTION_DDOT = 0

CCSDS_OMM_VERS = 2.0
CREATION_DATE  = 
ORIGINATOR     = 

OBJECT_NAME    = STARLINK-36750
OBJECT_ID      = 2026-025C
CENTER_NAME    = EARTH
REF_FRAME      = TEME
TIME_SYSTEM    = UTC
MEAN_ELEMENT_THEORY = SGP/SGP4

EPOCH          = 2026-02-27T02:36:02.933856
MEAN_MOTION    = 15.80867024
ECCENTRICITY   = .0001321
INCLINATION    = 97.2847
RA_OF_ASC_NODE = 169.1541
ARG_OF_PERICENTER = 99.1171
MEAN_ANOMALY   = 261.0246

EPHEMERIS_TYPE = 0
CLASSIFICATION_TYPE = U
NORAD_CAT_ID   = 67695
ELEMENT_SET_NO = 999
REV_AT_EPOCH   = 427
BSTAR          = .93056E-3
MEAN_MOTION_DOT = .182302E-2
MEAN_MOTION_DDOT = 0

CCSDS_OMM_VERS = 2.0
CREATION_DATE  = 
ORIGINATOR     = 

OBJECT_NAME    = STARLINK-36401
OBJECT_ID      = 2026-025D
CENTER_NAME    = EARTH
REF_FRAME      = TEME
TIME_SYSTEM    = UTC
MEAN_ELEMENT_THEORY = SGP/SGP4

EPOCH          = 2026-02-27T02:33:48.883392
MEAN_MOTION    = 15.80856610
ECCENTRICITY   = .0001345
INCLINATION    = 97.2849
RA_OF_ASC_NODE = 169.1560
ARG_OF_PERICENTER = 81.3402
MEAN_ANOMALY   = 278.8019

EPHEMERIS_TYPE = 0
CLASSIFICATION_TYPE = U
NORAD_CAT_ID   = 67696
ELEMENT_SET_NO = 999
REV_AT_EPOCH   = 427
BSTAR          = .74252E-3
MEAN_MOTION_DOT = .144737E-2
MEAN_MOTION_DDOT = 0

CCSDS_OMM_VERS = 2.0
CREATION_DATE  = 
ORIGINATOR     = 

OBJECT_NAME    = STARLINK-36704
OBJECT_ID      = 2026-025E
CENTER_NAME    = EARTH
REF_FRAME      = TEME
TIME_SYSTEM    = UTC
MEAN_ELEMENT_THEORY = SGP/SGP4

EPOCH          = 2026-02-27T04:00:01.999584
MEAN_MOTION    = 15.75109413
ECCENTRICITY   = .0001691
INCLINATION    = 97.2848
RA_OF_ASC_NODE = 169.2037
ARG_OF_PERICENTER = 93.1548
MEAN_ANOMALY   = 208.3061

EPHEMERIS_TYPE = 0
CLASSIFICATION_TYPE = U
NORAD_CAT_ID   = 67697
ELEMENT_SET_NO = 999
REV_AT_EPOCH   = 416
BSTAR          = .85355E-3
MEAN_MOTION_DOT = .128671E-2
MEAN_MOTION_DDOT = 0

