ISS OBJECT YC           
1 67686U 98067YC  26057.64294040  .00053017  00000+0  88335-3 0  9997
2 67686  51.6316 126.6439 0007613 114.2311 245.9475 15.51445447  3074
LEOPARD                 
1 67687U 98067YD  26058.16187174  .00036256  00000+0  61698-3 0  9994
2 67687  51.6317 124.1084 0007673 119.2183 240.9575 15.51023554  3070
ISS OBJECT YE           
1 67688U 98067YE  26057.57959780  .00049335  00000+0  82764-3 0  9998
2 67688  51.6319 126.9710 0007610 114.9063 245.2718 15.51284687  2981
PRC TEST SPACECRAFT 4   
1 67689U 26024A   26058.17686130  .00000022  00000+0  26148-4 0  9991
2 67689  49.9852  72.1213 0006151 319.5956  40.4528 14.91678801  3014
CZ-2F R/B               
1 67690U 26024B   26058.15098507  .00019524  00000+0  36063-3 0  9999
2 67690  49.9879  67.4377 0175753 231.2282 127.2863 15.33862395  3072
CZ-2F DEB               
1 67691U 26024C   26058.20229800  .00930604  10645-4  81640-3 0  9991
2 67691  49.9047  61.4756 0189989 243.5174 114.6209 15.84950198  3144
CZ-2F DEB               
1 67692U 26024D   26058.17880826  .00204953  00000+0  38424-2 0  9990
2 67692  50.3168  70.1866 0246958 238.7126 118.9437 15.20783613  3020
STARLINK-36748          
1 67693U 26025A   26058.12340020  .00125606  00000+0  82990-3 0  9999
2 67693  97.2844 169.1340 0001418  77.1366 283.0057 15.75210964  4273
STARLINK-36753          
1 67694U 26025B   26058.16668981  .00082799  00000+0  55226-3 0  9990
2 67694  97.2847 169.1985 0001302  89.7641 199.6954 15.75121191  4326
STARLINK-36750          
1 67695U 26025C   26058.10836729  .00182302  00000+0  93056-3 0  9996
2 67695  97.2847 169.1541 0001321  99.1171 261.0246 15.80867024  4279
STARLINK-36401          
1 67696U 26025D   26058.10681578  .00144737  00000+0  74252-3 0  9994
2 67696  97.2849 169.1560 0001345  81.3402 278.8019 15.80856610  4272
STARLINK-36704          
1 67697U 26025E   26058.16668981  .00128671  00000+0  85355-3 0  9999
2 67697  97.2848 169.2037 0001691  93.1548 208.3061 15.75109413  4167
